start=new Date('2022-05-19T00:00:00.000Z').valueOf();
sats=[{"MEAN_ANOMALY":"16.6600","ECCENTRICITY":"0.00021060","COUNTRY_CODE":"US","CLASSIFICATION_TYPE":"U","CENTER_NAME":"EARTH","PERIOD":"95.438","RCS_SIZE":"LARGE","NORAD_CAT_ID":"49426","OBJECT_NAME":"STARLINK-3114","MEAN_MOTION_DDOT":"0.0000000000000","BSTAR":"0.00041838000000","TIME_SYSTEM":"UTC","INCLINATION":"53.2185","ELEMENT_SET_NO":"999","ARG_OF_PERICENTER":"41.9028","SEMIMAJOR_AXIS":"6917.908","MEAN_MOTION":"15.08830853","REF_FRAME":"TEME","MEAN_MOTION_DOT":"0.00006375","FILE":"3452356","EPHEMERIS_TYPE":"0","REV_AT_EPOCH":"130","GP_ID":"203907085","RA_OF_ASC_NODE":"352.5397","OBJECT_ID":"2021-104U","LAUNCH_DATE":"2021-11-13","MEAN_ELEMENT_THEORY":"SGP4","TLE_LINE2":"2 49426  53.2185 352.5397 0002106  41.9028  16.6600 15.08830853  1302","OBJECT_TYPE":"PAYLOAD","SITE":"AFETR","TLE_LINE1":"1 49426U 21104U   22138.91667824  .00006375  00000-0  41838-3 0  9990","EPOCH":"2022-05-18T22:00:00.999936","PERIAPSIS":"538.316","DECAY_DATE":null,"APOAPSIS":"541.230"},{"RA_OF_ASC_NODE":"352.5410","GP_ID":"203880927","REV_AT_EPOCH":"2977","OBJECT_ID":"2021-104V","LAUNCH_DATE":"2021-11-13","MEAN_MOTION_DOT":"-0.00022394","REF_FRAME":"TEME","FILE":"3452253","EPHEMERIS_TYPE":"0","SITE":"AFETR","EPOCH":"2022-05-18T22:00:00.999936","TLE_LINE1":"1 49427U 21104V   22138.91667824 -.00022394  00000-0 -13932-2 0  9995","DECAY_DATE":null,"PERIAPSIS":"538.275","APOAPSIS":"541.210","MEAN_ELEMENT_THEORY":"SGP4","TLE_LINE2":"2 49427  53.2192 352.5410 0002121  39.2833  79.2833 15.08840874 29776","OBJECT_TYPE":"PAYLOAD","NORAD_CAT_ID":"49427","RCS_SIZE":"LARGE","ECCENTRICITY":"0.00021210","MEAN_ANOMALY":"79.2833","CLASSIFICATION_TYPE":"U","COUNTRY_CODE":"US","PERIOD":"95.437","CENTER_NAME":"EARTH","ELEMENT_SET_NO":"999","INCLINATION":"53.2192","ARG_OF_PERICENTER":"39.2833","TIME_SYSTEM":"UTC","MEAN_MOTION":"15.08840874","SEMIMAJOR_AXIS":"6917.878","OBJECT_NAME":"STARLINK-3131","MEAN_MOTION_DDOT":"0.0000000000000","BSTAR":"-0.00139320000000"},{"PERIOD":"95.437","CENTER_NAME":"EARTH","COUNTRY_CODE":"US","CLASSIFICATION_TYPE":"U","MEAN_ANOMALY":"139.4249","ECCENTRICITY":"0.00022750","RCS_SIZE":"LARGE","NORAD_CAT_ID":"49428","BSTAR":"-0.00198820000000","MEAN_MOTION_DDOT":"0.0000000000000","OBJECT_NAME":"STARLINK-3121","SEMIMAJOR_AXIS":"6917.857","MEAN_MOTION":"15.08847793","TIME_SYSTEM":"UTC","ELEMENT_SET_NO":"999","INCLINATION":"53.2168","ARG_OF_PERICENTER":"33.9380","FILE":"3452257","EPHEMERIS_TYPE":"0","MEAN_MOTION_DOT":"-0.00031799","REF_FRAME":"TEME","LAUNCH_DATE":"2021-11-13","OBJECT_ID":"2021-104W","REV_AT_EPOCH":"2975","GP_ID":"203880989","RA_OF_ASC_NODE":"352.5552","OBJECT_TYPE":"PAYLOAD","TLE_LINE2":"2 49428  53.2168 352.5552 0002275  33.9380 139.4249 15.08847793 29750","MEAN_ELEMENT_THEORY":"SGP4","APOAPSIS":"541.295","DECAY_DATE":null,"PERIAPSIS":"538.148","TLE_LINE1":"1 49428U 21104W   22138.91667824 -.00031799  00000-0 -19882-2 0  9995","EPOCH":"2022-05-18T22:00:00.999936","SITE":"AFETR"},{"RCS_SIZE":"LARGE","NORAD_CAT_ID":"49430","CENTER_NAME":"EARTH","PERIOD":"95.437","COUNTRY_CODE":"US","CLASSIFICATION_TYPE":"U","MEAN_ANOMALY":"99.9904","ECCENTRICITY":"0.00021590","SEMIMAJOR_AXIS":"6917.870","MEAN_MOTION":"15.08843401","TIME_SYSTEM":"UTC","ELEMENT_SET_NO":"999","ARG_OF_PERICENTER":"38.5647","INCLINATION":"53.2189","BSTAR":"-0.00168640000000","MEAN_MOTION_DDOT":"0.0000000000000","OBJECT_NAME":"STARLINK-3138","LAUNCH_DATE":"2021-11-13","OBJECT_ID":"2021-104Y","REV_AT_EPOCH":"2975","GP_ID":"203881861","RA_OF_ASC_NODE":"352.5457","EPHEMERIS_TYPE":"0","FILE":"3452293","REF_FRAME":"TEME","MEAN_MOTION_DOT":"-0.00027030","APOAPSIS":"541.229","DECAY_DATE":null,"PERIAPSIS":"538.241","TLE_LINE1":"1 49430U 21104Y   22138.91667824 -.00027030  00000-0 -16864-2 0  9998","EPOCH":"2022-05-18T22:00:00.999936","SITE":"AFETR","OBJECT_TYPE":"PAYLOAD","MEAN_ELEMENT_THEORY":"SGP4","TLE_LINE2":"2 49430  53.2189 352.5457 0002159  38.5647  99.9904 15.08843401 29758"},{"APOAPSIS":"541.350","PERIAPSIS":"538.100","DECAY_DATE":null,"TLE_LINE1":"1 49431U 21104Z   22138.91667824 -.00025156  00000-0 -15676-2 0  9996","EPOCH":"2022-05-18T22:00:00.999936","SITE":"AFETR","OBJECT_TYPE":"PAYLOAD","MEAN_ELEMENT_THEORY":"SGP4","TLE_LINE2":"2 49431  53.2168 352.5360 0002349  35.2691 318.0723 15.08846815 29759","LAUNCH_DATE":"2021-11-13","OBJECT_ID":"2021-104Z","REV_AT_EPOCH":"2975","RA_OF_ASC_NODE":"352.5360","GP_ID":"203881013","FILE":"3452259","EPHEMERIS_TYPE":"0","REF_FRAME":"TEME","MEAN_MOTION_DOT":"-0.00025156","SEMIMAJOR_AXIS":"6917.860","MEAN_MOTION":"15.08846815","TIME_SYSTEM":"UTC","ELEMENT_SET_NO":"999","INCLINATION":"53.2168","ARG_OF_PERICENTER":"35.2691","BSTAR":"-0.00156760000000","MEAN_MOTION_DDOT":"0.0000000000000","OBJECT_NAME":"STARLINK-3153","RCS_SIZE":"LARGE","NORAD_CAT_ID":"49431","PERIOD":"95.437","CENTER_NAME":"EARTH","COUNTRY_CODE":"US","CLASSIFICATION_TYPE":"U","MEAN_ANOMALY":"318.0723","ECCENTRICITY":"0.00023490"},{"SEMIMAJOR_AXIS":"6917.849","MEAN_MOTION":"15.08850262","TIME_SYSTEM":"UTC","ARG_OF_PERICENTER":"35.5195","ELEMENT_SET_NO":"999","INCLINATION":"53.2160","MEAN_MOTION_DDOT":"0.0000000000000","BSTAR":"-0.00190600000000","OBJECT_NAME":"STARLINK-3158","RCS_SIZE":"LARGE","NORAD_CAT_ID":"49432","COUNTRY_CODE":"US","CLASSIFICATION_TYPE":"U","PERIOD":"95.437","CENTER_NAME":"EARTH","MEAN_ANOMALY":"292.8478","ECCENTRICITY":"0.00021440","DECAY_DATE":null,"PERIAPSIS":"538.231","APOAPSIS":"541.197","SITE":"AFETR","TLE_LINE1":"1 49432U 21104AA  22138.91667824 -.00030504  00000-0 -19060-2 0  9991","EPOCH":"2022-05-18T22:00:00.999936","OBJECT_TYPE":"PAYLOAD","TLE_LINE2":"2 49432  53.2160 342.5564 0002144  35.5195 292.8478 15.08850262 29894","MEAN_ELEMENT_THEORY":"SGP4","OBJECT_ID":"2021-104AA","LAUNCH_DATE":"2021-11-13","REV_AT_EPOCH":"2989","RA_OF_ASC_NODE":"342.5564","GP_ID":"203882329","MEAN_MOTION_DOT":"-0.00030504","REF_FRAME":"TEME","EPHEMERIS_TYPE":"0","FILE":"3452295"},{"OBJECT_NAME":"STARLINK-3079","BSTAR":"0.00004607500000","MEAN_MOTION_DDOT":"0.0000000000000","TIME_SYSTEM":"UTC","INCLINATION":"53.2161","ELEMENT_SET_NO":"999","ARG_OF_PERICENTER":"42.7748","SEMIMAJOR_AXIS":"6917.910","MEAN_MOTION":"15.08830308","MEAN_ANOMALY":"285.7976","ECCENTRICITY":"0.00018250","CENTER_NAME":"EARTH","PERIOD":"95.438","COUNTRY_CODE":"US","CLASSIFICATION_TYPE":"U","RCS_SIZE":"LARGE","NORAD_CAT_ID":"49433","MEAN_ELEMENT_THEORY":"SGP4","TLE_LINE2":"2 49433  53.2161 332.5440 0001825  42.7748 285.7976 15.08830308  1306","OBJECT_TYPE":"PAYLOAD","EPOCH":"2022-05-18T22:00:00.999936","TLE_LINE1":"1 49433U 21104AB  22138.91667824  .00000445  00000-0  46075-4 0  9999","SITE":"AFETR","APOAPSIS":"541.038","DECAY_DATE":null,"PERIAPSIS":"538.512","EPHEMERIS_TYPE":"0","FILE":"3452356","REF_FRAME":"TEME","MEAN_MOTION_DOT":"0.00000445","REV_AT_EPOCH":"130","RA_OF_ASC_NODE":"332.5440","GP_ID":"203906584","LAUNCH_DATE":"2021-11-13","OBJECT_ID":"2021-104AB"},{"MEAN_MOTION":"15.08825932","SEMIMAJOR_AXIS":"6917.923","ELEMENT_SET_NO":"999","ARG_OF_PERICENTER":"32.8950","INCLINATION":"53.2176","TIME_SYSTEM":"UTC","MEAN_MOTION_DDOT":"0.0000000000000","BSTAR":"-0.00000647270000","OBJECT_NAME":"STARLINK-3134","NORAD_CAT_ID":"49434","RCS_SIZE":"LARGE","CLASSIFICATION_TYPE":"U","COUNTRY_CODE":"US","PERIOD":"95.438","CENTER_NAME":"EARTH","ECCENTRICITY":"0.00022270","MEAN_ANOMALY":"125.6697","DECAY_DATE":null,"PERIAPSIS":"538.248","APOAPSIS":"541.329","SITE":"AFETR","TLE_LINE1":"1 49434U 21104AC  22138.91667824 -.00000391  00000-0 -64727-5 0  9997","EPOCH":"2022-05-18T22:00:00.999936","OBJECT_TYPE":"PAYLOAD","MEAN_ELEMENT_THEORY":"SGP4","TLE_LINE2":"2 49434  53.2176 352.5523 0002227  32.8950 125.6697 15.08825932 29757","OBJECT_ID":"2021-104AC","LAUNCH_DATE":"2021-11-13","RA_OF_ASC_NODE":"352.5523","GP_ID":"203881680","REV_AT_EPOCH":"2975","REF_FRAME":"TEME","MEAN_MOTION_DOT":"-0.00000391","EPHEMERIS_TYPE":"0","FILE":"3452279"},{"COUNTRY_CODE":"US","CLASSIFICATION_TYPE":"U","CENTER_NAME":"EARTH","PERIOD":"95.438","MEAN_ANOMALY":"254.9357","ECCENTRICITY":"0.00018810","RCS_SIZE":"LARGE","NORAD_CAT_ID":"49435","MEAN_MOTION_DDOT":"0.0000000000000","BSTAR":"0.00020186000000","OBJECT_NAME":"STARLINK-3117","SEMIMAJOR_AXIS":"6917.920","MEAN_MOTION":"15.08826898","TIME_SYSTEM":"UTC","ELEMENT_SET_NO":"999","ARG_OF_PERICENTER":"48.4258","INCLINATION":"53.2153","REF_FRAME":"TEME","MEAN_MOTION_DOT":"0.00002925","FILE":"3452356","EPHEMERIS_TYPE":"0","OBJECT_ID":"2021-104AD","LAUNCH_DATE":"2021-11-13","REV_AT_EPOCH":"130","GP_ID":"203907086","RA_OF_ASC_NODE":"332.5553","OBJECT_TYPE":"PAYLOAD","MEAN_ELEMENT_THEORY":"SGP4","TLE_LINE2":"2 49435  53.2153 332.5553 0001881  48.4258 254.9357 15.08826898  1305","DECAY_DATE":null,"PERIAPSIS":"538.484","APOAPSIS":"541.087","SITE":"AFETR","TLE_LINE1":"1 49435U 21104AD  22138.91667824  .00002925  00000-0  20186-3 0  9990","EPOCH":"2022-05-18T22:00:00.999936"},{"TLE_LINE1":"1 49436U 21104AE  22138.91667824 -.00007166  00000-0 -43259-3 0  9991","EPOCH":"2022-05-18T22:00:00.999936","SITE":"AFETR","APOAPSIS":"541.222","PERIAPSIS":"538.290","DECAY_DATE":null,"TLE_LINE2":"2 49436  53.2154 332.5396 0002119  39.2472 269.3114 15.08836482 30025","MEAN_ELEMENT_THEORY":"SGP4","OBJECT_TYPE":"PAYLOAD","REV_AT_EPOCH":"3002","RA_OF_ASC_NODE":"332.5396","GP_ID":"203881687","LAUNCH_DATE":"2021-11-13","OBJECT_ID":"2021-104AE","EPHEMERIS_TYPE":"0","FILE":"3452279","REF_FRAME":"TEME","MEAN_MOTION_DOT":"-0.00007166","TIME_SYSTEM":"UTC","INCLINATION":"53.2154","ELEMENT_SET_NO":"999","ARG_OF_PERICENTER":"39.2472","SEMIMAJOR_AXIS":"6917.891","MEAN_MOTION":"15.08836482","OBJECT_NAME":"STARLINK-3049","BSTAR":"-0.00043259000000","MEAN_MOTION_DDOT":"0.0000000000000","RCS_SIZE":"LARGE","NORAD_CAT_ID":"49436","MEAN_ANOMALY":"269.3114","ECCENTRICITY":"0.00021190","PERIOD":"95.438","CENTER_NAME":"EARTH","COUNTRY_CODE":"US","CLASSIFICATION_TYPE":"U"}];
